GALAXY 3C (G-3C)        
1 27445U 02030A   17345.04186600 -.00000158  00000-0  00000+0 0  9996
2 27445   0.0159 315.7545 0002049   9.2029  35.0345  1.00269983 56779
